     3.02           N: GNSS NAV DATA    G: GPS NAV DATA     RINEX VERSION / TYPE
NetR9 5.37          Receiver Operator   20200518 000001 UTC PGM / RUN BY / DATE
GPSA    .7451D-08   .2235D-07  -.5960D-07  -.1192D-06       IONOSPHERIC CORR
GPSB    .8602D+05   .8192D+05  -.1311D+06  -.5243D+06       IONOSPHERIC CORR
GPUT   .0000000000D+00  .621724894D-14 233472 2106          TIME SYSTEM CORR
    18    18  2185     7                                    LEAP SECONDS
                                                            END OF HEADER
G05 2020 05 18 00 00 00 -.128676183522D-04 -.682121026330D-12  .000000000000D+00
      .210000000000D+02 -.239062500000D+02  .516414367874D-08  .118411737536D+00
     -.110268592834D-05  .585496623535D-02  .428594648838D-05  .515365635681D+04
      .864000000000D+05 -.204890966415D-07 -.207386434427D+01 -.745058059692D-08
      .952225034326D+00  .288281250000D+03  .792294398722D+00 -.855142762986D-08
     -.165364030933D-09  .100000000000D+01  .210600000000D+04  .000000000000D+00
      .200000000000D+01  .000000000000D+00 -.111758708954D-07  .210000000000D+02
      .852060000000D+05  .400000000000D+01
G06 2020 05 18 00 00 00 -.273362267762D-03 -.682121026330D-11  .000000000000D+00
      .450000000000D+02  .266250000000D+02  .419946063868D-08 -.267193952686D+01
      .148266553879D-05  .192686438095D-02  .835955142975D-05  .515354308510D+04
      .864000000000D+05 -.782310962677D-07 -.309066588735D+01  .428408384323D-07
      .979938579289D+00  .229437500000D+03 -.105611700271D+01 -.781568269741D-08
      .422517599554D-09  .100000000000D+01  .210600000000D+04  .000000000000D+00
      .200000000000D+01  .000000000000D+00  .419095158577D-08  .450000000000D+02
      .792180000000D+05  .400000000000D+01
